[{"OBJECT_NAME":"GEESAT-1 09","OBJECT_ID":"2022-058J","EPOCH":"2026-03-09T22:14:58.178400","MEAN_MOTION":14.996745,"ECCENTRICITY":0.0007116,"INCLINATION":49.9974,"RA_OF_ASC_NODE":293.7726,"ARG_OF_PERICENTER":137.6611,"MEAN_ANOMALY":222.4884,"EPHEMERIS_TYPE":0,"CLASSIFICATION_TYPE":"U","NORAD_CAT_ID":52793,"ELEMENT_SET_NO":999,"REV_AT_EPOCH":20534,"BSTAR":0.00045554765,"MEAN_MOTION_DOT":5.429e-5,"MEAN_MOTION_DDOT":0},{"OBJECT_NAME":"DELTA 1 DEB","OBJECT_ID":"1977-065AY","EPOCH":"2026-03-09T09:31:52.025088","MEAN_MOTION":14.67405758,"ECCENTRICITY":0.02967978,"INCLINATION":29.0245,"RA_OF_ASC_NODE":176.3039,"ARG_OF_PERICENTER":150.7849,"MEAN_ANOMALY":210.9696,"EPHEMERIS_TYPE":0,"CLASSIFICATION_TYPE":"U","NORAD_CAT_ID":10221,"ELEMENT_SET_NO":999,"REV_AT_EPOCH":45797,"BSTAR":0.0014159957,"MEAN_MOTION_DOT":0.00016256,"MEAN_MOTION_DDOT":0}]
